OBJECT_NAME,OBJECT_ID,EPOCH,MEAN_MOTION,ECCENTRICITY,INCLINATION,RA_OF_ASC_NODE,ARG_OF_PERICENTER,MEAN_ANOMALY,EPHEMERIS_TYPE,CLASSIFICATION_TYPE,NORAD_CAT_ID,ELEMENT_SET_NO,REV_AT_EPOCH,BSTAR,MEAN_MOTION_DOT,MEAN_MOTION_DDOT
STARLINK-30432,2023-144A,2026-04-23T01:13:16.850208,15.27575481,.00012406,43.0051,34.5270,261.1794,98.8918,0,U,57864,999,14438,.7176311E-5,-.65E-6,0
STARLINK-30427,2023-144B,2026-04-23T01:18:49.559328,15.27575920,.00013611,43.0034,34.5490,267.4314,92.6382,0,U,57865,999,14438,.30376899E-4,.574E-5,0
STARLINK-30393,2023-144C,2026-04-23T04:10:29.127072,15.27577673,.00012403,43.0070,33.7238,239.7085,120.3644,0,U,57866,999,14440,.34847113E-4,.697E-5,0
STARLINK-30439,2023-144D,2026-04-23T02:58:31.577376,15.27597138,.00013375,43.0025,34.2071,260.1600,99.9100,0,U,57867,999,14444,.47756778E-3,.12909E-3,0
STARLINK-30442,2023-144E,2026-04-23T03:04:04.905120,15.27573826,.00012241,43.0033,34.1958,271.5989,88.4723,0,U,57868,999,14439,-.21341464E-4,-.849E-5,0
STARLINK-30441,2023-144F,2026-04-23T04:16:01.503552,15.27578317,.00011483,43.0063,33.7119,249.1401,110.9328,0,U,57869,999,14440,.16884363E-3,.4387E-4,0
STARLINK-30460,2023-144G,2026-04-23T04:41:57.153696,15.27582492,.00013634,43.0045,33.8862,273.1183,86.9513,0,U,57870,999,14445,-.67344171E-4,-.2115E-4,0
STARLINK-30444,2023-144H,2026-04-23T04:53:02.709312,15.27580021,.00011181,43.0038,33.9479,265.4053,94.6671,0,U,57871,999,14416,.6457248E-3,.17549E-3,0
STARLINK-30446,2023-144J,2026-04-23T00:35:24.694368,15.27574322,.00012727,43.0042,20.6901,270.2228,89.8478,0,U,57872,999,14431,.11439185E-4,.53E-6,0
STARLINK-30445,2023-144K,2026-04-23T03:13:22.416672,15.27548622,.00006425,42.9990,34.2863,335.0486,25.0335,0,U,57873,999,14439,.2358789E-5,-.197E-5,0
STARLINK-30447,2023-144L,2026-04-21T23:30:40.755168,15.27577706,.00010804,43.0054,14.9759,275.8163,84.2566,0,U,57874,999,14455,.82182661E-4,.2E-4,0
STARLINK-30434,2023-144M,2026-04-23T01:55:50.183616,15.27576839,.0000777,43.0042,34.7420,264.4036,95.6727,0,U,57875,999,14443,-.24245325E-4,-.929E-5,0
STARLINK-30429,2023-144N,2026-04-23T02:01:23.364480,15.27571504,.00010997,43.0050,34.7736,286.9073,73.1659,0,U,57876,999,14442,-.22721226E-4,-.887E-5,0
STARLINK-30284,2023-144P,2026-04-23T01:17:56.145984,15.27571888,.0001312,43.0075,358.0111,278.7254,81.3449,0,U,57877,999,14484,.23309541E-3,.6156E-4,0
STARLINK-30433,2023-144Q,2026-04-22T12:17:48.933024,15.27577706,.00009353,43.0057,37.3616,253.9135,106.1614,0,U,57878,999,14434,.57166242E-4,.1311E-4,0
STARLINK-30358,2023-144R,2026-04-23T04:04:55.995456,15.27576476,.00014558,43.0078,33.6953,252.3088,107.7605,0,U,57879,999,14444,.1111488E-5,-.232E-5,0
STARLINK-30436,2023-144S,2026-04-23T04:14:09.313152,15.27574579,.00020847,43.0080,33.7399,256.1664,103.8956,0,U,57880,999,14444,-.25537245E-3,-.7282E-4,0
STARLINK-30339,2023-144U,2026-04-23T03:45:32.412960,15.26737106,.00010513,43.0055,34.4538,278.5933,81.4799,0,U,57882,999,14443,-.32283702E-4,-.1125E-4,0
STARLINK-30282,2023-144V,2026-04-22T12:14:07.390464,15.27562314,.00019397,43.0074,37.3439,268.2383,91.8246,0,U,57883,999,14434,.1895302E-5,-.21E-5,0
STARLINK-30340,2023-144W,2026-04-23T04:06:47.203488,15.27586630,.00004887,43.0059,33.6950,257.1627,102.9170,0,U,57884,999,14444,.83570656E-4,.2039E-4,0
STARLINK-30279,2023-144X,2026-04-23T04:01:13.803168,15.27575309,.00012378,43.0061,33.6747,244.4831,115.5893,0,U,57885,999,14438,.23295139E-4,.379E-5,0
STARLINK-30465,2023-146A,2026-04-23T06:08:51.165600,15.26742851,.00018337,43.0056,62.3887,271.4927,88.5714,0,U,57891,999,14387,.29018252E-4,.518E-5,0
STARLINK-30470,2023-146B,2026-04-23T05:52:18.751008,15.27579342,.00012046,43.0043,62.3012,275.1938,84.8776,0,U,57892,999,14387,.63112731E-4,.1475E-4,0
STARLINK-30473,2023-146C,2026-04-23T05:06:15.222816,15.27575084,.00008055,43.0018,62.8493,237.7195,122.3579,0,U,57893,999,14386,.11502119E-3,.2904E-4,0
STARLINK-30443,2023-146D,2026-04-22T22:23:44.192832,15.27576060,.00012263,43.0041,64.2572,257.5422,102.5293,0,U,57894,999,14382,.27801633E-4,.503E-5,0
STARLINK-30467,2023-146E,2026-04-23T05:57:51.429024,15.27529312,.00018082,43.0059,62.3307,259.6363,100.4285,0,U,57895,999,14386,.34755481E-3,.9299E-4,0
STARLINK-30469,2023-146F,2026-04-23T03:11:45.368736,15.27575112,.00008194,43.0018,63.1778,262.2579,97.8179,0,U,57896,999,14385,-.22441852E-4,-.879E-5,0
STARLINK-30474,2023-146G,2026-04-23T06:14:18.514464,15.27234480,.00009775,43.0037,62.4141,287.5484,72.5261,0,U,57897,999,14387,.21367339E-2,.58383E-3,0
STARLINK-30479,2023-146H,2026-04-23T06:29:19.038336,15.27573682,.00023253,43.0067,62.4849,262.6442,97.4146,0,U,57898,999,14387,.26231014E-4,.459E-5,0
STARLINK-30481,2023-146J,2026-04-23T06:22:36.036768,15.26741811,.00013983,43.0031,62.4529,255.3812,104.6884,0,U,57899,999,14387,.30904568E-4,.569E-5,0
STARLINK-30457,2023-146K,2026-04-23T03:52:26.433984,15.27579709,.00004403,43.0003,63.3811,254.7998,105.2805,0,U,57900,999,14279,.88228707E-4,.2167E-4,0
STARLINK-30472,2023-146L,2026-04-23T06:05:58.585056,15.27577019,.00012183,43.0039,58.9507,266.0411,94.0302,0,U,57901,999,14285,.13948519E-3,.3578E-4,0
STARLINK-30462,2023-146M,2026-04-23T06:45:58.122144,15.27593182,.0001613,43.0031,62.5673,280.7225,79.3445,0,U,57902,999,14383,-.15419009E-3,-.4504E-4,0
STARLINK-30449,2023-146N,2026-04-23T04:31:10.035840,15.27339804,.000146,43.0037,62.7287,266.2214,93.8470,0,U,57903,999,14280,.18668908E-2,.51091E-3,0
STARLINK-30466,2023-146P,2026-04-23T06:37:19.649568,15.26744540,.00010378,43.0037,62.5244,259.2872,100.7863,0,U,57904,999,14281,.16746593E-3,.4235E-4,0
STARLINK-30428,2023-146R,2026-04-23T06:53:02.340096,15.26737800,.0001098,43.0042,62.6010,278.3422,81.7304,0,U,57906,999,14281,-.19950553E-4,-.795E-5,0
STARLINK-30482,2023-146S,2026-04-23T04:03:33.827328,15.27572643,.00010723,43.0046,63.4422,257.7613,102.3119,0,U,57907,999,14280,.95821273E-4,.2375E-4,0
STARLINK-30464,2023-146T,2026-04-23T07:07:27.969600,15.27573374,.00011382,43.0012,66.0775,268.2335,91.8386,0,U,57908,999,14277,.17961891E-4,.232E-5,0
STARLINK-30463,2023-146U,2026-04-23T05:45:16.577280,15.26736627,.0000848,43.0049,63.1116,269.2335,90.8419,0,U,57909,999,14280,-.22990279E-4,-.876E-5,0
STARLINK-30453,2023-146V,2026-04-22T23:08:51.383904,15.27560243,.00014316,43.0059,61.0829,271.6315,88.4373,0,U,57910,999,14280,-.57650344E-4,-.1847E-4,0
STARLINK-30478,2023-146W,2026-04-23T05:53:27.996288,15.26740843,.00012214,43.0047,62.3004,280.1249,79.9464,0,U,57911,999,14387,.18047016E-4,.224E-5,0
STARLINK-30477,2023-146X,2026-04-23T06:00:24.656832,15.27592918,.00015679,43.0054,58.9252,265.8810,94.1863,0,U,57912,999,14391,-.5827608E-5,-.423E-5,0
STARLINK-30450,2023-147A,2026-04-23T05:35:36.462624,15.27575114,.00013606,43.0030,73.3653,264.9044,95.1652,0,U,57913,999,14341,.38554651E-4,.799E-5,0
STARLINK-30483,2023-147B,2026-04-22T22:05:25.835424,15.27577356,.0001569,42.9992,289.8341,275.8359,84.2314,0,U,57914,999,14507,-.11691E-4,-.584E-5,0
STARLINK-30454,2023-147C,2026-04-23T05:46:42.680928,15.27577762,.00009085,43.0037,73.4209,265.5661,94.5087,0,U,57915,999,14341,.23553468E-4,.386E-5,0
STARLINK-30501,2023-147E,2026-04-23T05:50:25.565280,15.27156087,.00004099,43.0026,73.4364,241.7022,118.3788,0,U,57917,999,14343,-.64421055E-2,-.171258E-2,0
STARLINK-30499,2023-147F,2026-04-22T20:05:34.188000,15.27578223,.0001391,43.0022,290.8976,261.2600,98.8094,0,U,57918,999,14508,.99538E-5,.12E-6,0
STARLINK-30496,2023-147G,2026-04-23T06:07:04.164384,15.27573167,.00006176,43.0028,73.5277,264.0301,96.0481,0,U,57919,999,14344,-.16576188E-4,-.718E-5,0
STARLINK-30485,2023-147H,2026-04-23T06:12:35.996544,15.27584000,.00013698,42.9999,73.5582,250.9473,109.1231,0,U,57920,999,14344,.5067374E-4,.1133E-4,0
STARLINK-30492,2023-147J,2026-04-22T22:31:05.591424,15.27564710,.0000607,43.0052,75.4473,208.9565,151.1253,0,U,57921,999,14336,-.44862E-4,-.1495E-4,0
STARLINK-30440,2023-147L,2026-04-23T06:49:36.936192,15.27582706,.00014934,43.0057,73.7424,279.4781,80.5901,0,U,57923,999,14344,-.20981272E-4,-.84E-5,0
STARLINK-30487,2023-147M,2026-04-23T06:10:30.873792,15.26747740,.00015441,43.0056,76.9272,260.5126,99.5551,0,U,57924,999,14340,.61900038E-4,.1401E-4,0
STARLINK-30452,2023-147N,2026-04-23T06:53:19.470624,15.27576025,.00014754,43.0051,73.7623,269.1055,90.9627,0,U,57925,999,14341,.13389838E-4,.106E-5,0
STARLINK-30468,2023-147P,2026-04-23T05:46:45.256512,15.26743959,.00010545,43.0020,76.8327,265.8575,94.2156,0,U,57926,999,14337,.47691463E-4,.102E-4,0
STARLINK-30448,2023-147R,2026-04-23T06:00:02.000160,15.27555541,.00012107,43.0014,77.0001,268.7923,45.8933,0,U,57928,999,579,.11899371E-2,.32603E-3,0
STARLINK-30476,2023-147T,2026-04-23T04:32:26.849760,15.44001642,.00201771,42.9951,15.3561,191.3693,168.6711,0,U,57930,999,14408,.4882908E-3,.22703E-3,0
STARLINK-30488,2023-147U,2026-04-23T06:17:27.541248,15.27574451,.00004339,43.0019,76.9769,272.1461,87.9341,0,U,57931,999,14340,.8164977E-5,-.37E-6,0
STARLINK-30471,2023-147V,2026-04-23T07:01:09.077088,15.26748811,.00012119,43.0040,72.9503,267.1793,92.8919,0,U,57932,999,14342,.26378681E-4,.448E-5,0
STARLINK-30461,2023-147W,2026-04-23T03:50:20.950944,15.27576212,.00014303,43.0037,73.6747,262.4441,97.6249,0,U,57933,999,14340,.20591213E-4,.304E-5,0
STARLINK-30712,2023-148A,2026-04-22T21:46:57.705312,15.30200288,.0001027,53.1604,178.8149,81.7657,278.3460,0,U,57935,999,14519,-.37936E-4,-.1482E-4,0
STARLINK-30716,2023-148B,2026-04-23T04:45:40.953024,15.30217811,.00011306,53.1598,177.6891,75.8738,284.2389,0,U,57936,999,14523,.58452436E-4,.1373E-4,0
STARLINK-30400,2023-148C,2026-04-22T21:51:31.074048,15.30200182,.0002321,53.1579,178.7875,88.8840,271.2427,0,U,57937,999,14519,.90102E-4,.231E-4,0
STARLINK-30710,2023-148D,2026-04-23T03:49:38.943264,15.30199245,.00011346,53.1591,167.6561,74.1533,285.9593,0,U,57938,999,14536,-.46397105E-4,-.1733E-4,0
STARLINK-30714,2023-148E,2026-04-23T04:54:49.201632,15.30197898,.00007923,53.1572,177.7151,90.4982,269.6110,0,U,57939,999,14523,-.34937712E-4,-.1393E-4,0
